{
"type": "FeatureCollection",
"name": "Северная Румыния",
"crs": { "type": "name", "properties": { "name": "urn:ogc:def:crs:OGC:1.3:CRS84" } },
"features": [
{ "type": "Feature", "properties": { "full_id": "r90689", "osm_id": "90689", "osm_type": "relation", "admin_level": "2", "wikipedia": "en:Romania", "wikidata": "Q218", "type": "boundary", "timezone": "Europe/Bucharest", "official_name": "România", "name:zh-Hant": "羅馬尼亞", "name:zh-Hans": "罗马尼亚", "name:zh": "罗马尼亚 / 羅馬尼亞", "name:zea": "Roemenië", "name:yue": "羅馬尼亞", "name:yo": "Románíà", "name:yi": "רומעניע", "name:xmf": "რუმინეთი", "name:xal": "Румудин Орн", "name:wuu": "罗马尼亚", "name:wo": "Romaani", "name:war": "Rumania", "name:wa": "Roumaneye", "name:vro": "Rumeeniä", "name:vo": "Rumän", "name:vls": "Roemenië", "name:vi": "Romania", "name:vep": "Romanii", "name:vec": "Romanìa", "name:uz": "Ruminiya", "name:ur": "رومانیہ", "name:uk": "Румунія", "name:ug": "Ruminiye", "name:udm": "Румыния", "name:tzl": "Romania", "name:tt": "Румыния", "name:tr": "Romanya", "name:tpi": "Romenia", "name:tok": "ma Lomani", "name:tl": "Rumanya", "name:tk": "Rumyniýa", "name:th": "ประเทศโรมาเนีย", "name:tg": "Руминия", "name:tet": "Roménia", "name:te": "రొమేనియా", "name:ta": "உருமேனியா", "name:szl": "Rumynijŏ", "name:sw": "Romania", "name:sv": "Rumänien", "name:su": "Romania", "name:stq": "Rumänien", "name:ss": "IRomaniya", "name:sr": "Румунија", "name:sq": "Rumania", "name:so": "Romania", "name:sms": "Romania", "name:smn": "Romania", "name:sm": "Romania", "name:sl": "Romunija", "name:sk": "Rumunsko", "name:si": "රුමේනියාව", "name:sh": "Rumunija", "name:se": "Romania", "name:sco": "Romanie", "name:scn": "Rumanìa", "name:sc": "Romania", "name:sah": "Румыния", "name:rw": "Romaniya", "name:rue": "Румуньско", "name:ru": "Румыния", "name:roa-tara": "Romanie", "name:roa-rup": "Romănia", "name:ro": "România", "name:rmy": "Rumuniya", "name:rm": "Rumenia", "name:qu": "Rumanya", "name:pt": "Roménia", "name:ps": "رومانیا", "name:pnt": "Ρουμανία", "name:pnb": "رومانیہ", "name:pms": "Romanìa", "name:pl": "Rumunia", "name:pih": "Romainya", "name:pdc": "Rumeenie", "name:pcd": "Roumanie", "name:pam": "Romania", "name:pa": "ਰੋਮਾਨੀਆ", "name:os": "Румыни", "name:or": "ରୋମାନିଆ", "name:oc": "Romania", "name:nv": "Wooméiniya", "name:nrm": "Roumanie", "name:nov": "Rumania", "name:no": "Romania", "name:nn": "Romania", "name:nl": "Roemenië", "name:new": "रोमानिया", "name:ne": "रोमानिया", "name:nds-nl": "Roemenië", "name:nds": "Rumänien", "name:nap": "Rumania", "name:nan": "România", "name:nah": "Rumania", "name:na": "Romania", "name:my": "ရိုမေးနီးယားနိုင်ငံ", "name:mt": "Rumanija", "name:ms": "Romania", "name:mr": "रोमेनिया", "name:mn": "Румын", "name:ml": "റൊമാനിയ", "name:mk": "Романија", "name:mi": "Romeinia", "name:mhr": "Румыний", "name:mdf": "Румыние", "name:lzh": "羅馬尼亞", "name:lv": "Rumānija", "name:ltg": "Rumuneja", "name:lt": "Rumunija", "name:ln": "Rumania", "name:lmo": "Rumania", "name:lij": "Romania", "name:li": "Roemenië", "name:lb": "Rumänien", "name:lad": "Rumania", "name:la": "Romania", "name:ky": "Румыния", "name:kw": "Roumani", "name:kv": "Румыния", "name:ku": "Romanya", "name:krc": "Румыния", "name:koi": "Ромыния", "name:ko": "루마니아", "name:kn": "ರೊಮಾನಿಯ", "name:kl": "Rumænia", "name:kk": "Румыния", "name:kg": "Romania", "name:kbd": "Румыниэ", "name:kaa": "Rumıniya", "name:ka": "რუმინეთი", "name:jv": "Rumania", "name:jbo": "romanias", "name:ja": "ルーマニア", "name:it": "Romania", "name:is": "Rúmenía", "name:io": "Rumania", "name:ilo": "Romania", "name:ie": "Rumania", "name:id": "Rumania", "name:ia": "Romania", "name:hy": "Ռումինիա", "name:hu": "Románia", "name:ht": "Woumani", "name:hsb": "Rumunska", "name:hr": "Rumunjska", "name:hif": "Romania", "name:hi": "रोमानिया", "name:he": "רומניה", "name:haw": "Romānia", "name:hak": "Lò-mâ-nì-â", "name:gv": "Yn Romaan", "name:gu": "રોમાનિયા", "name:gn": "Rrumaña", "name:gl": "Romanía", "name:gd": "Romàinia", "name:gag": "Romıniya", "name:ga": "An Rómáin", "name:fy": "Roemeenje", "name:fur": "Romanie", "name:frr": "Rumänien", "name:frp": "Roumanie", "name:fr": "Roumanie", "name:fo": "Rumenia", "name:fi": "Romania", "name:fa": "رومانی", "name:ext": "Rumania", "name:eu": "Errumania", "name:et": "Rumeenia", "name:es": "Rumanía", "name:eo": "Rumanio", "name:en": "Romania", "name:eml": "Rumanî", "name:el": "Ρουμανία", "name:ee": "Romania", "name:dv": "ރުމޭނިއާ", "name:dsb": "Rumuńska", "name:diq": "Romanya", "name:de": "Rumänien", "name:da": "Rumænien", "name:cy": "Rwmania", "name:cv": "Румыни", "name:cu": "Роумꙑнїꙗ", "name:csb": "Rumùńskô", "name:cs": "Rumunsko", "name:crh": "Romaniya", "name:co": "Romania", "name:ckb": "ڕۆمانیا", "name:chr": "ᎶᎹᏂᏯ", "name:ceb": "Rumanya", "name:ce": "Румыни", "name:cdo": "Lò̤-mā-nà̤-ā", "name:cbk-zam": "Rumanía", "name:ca": "Romania", "name:bxr": "Румын", "name:bs": "Rumunija", "name:br": "Roumania", "name:bpy": "রোমানিয়া", "name:bo": "རོ་མ་ནི་ཡ།", "name:bn": "রোমানিয়া", "name:bi": "Romania", "name:bg": "Румъния", "name:be-tarask": "Румынія", "name:be": "Румынія", "name:bcl": "Romanya", "name:bat-smg": "Romunėjė", "name:bar": "Rumänien", "name:ba": "Румыния", "name:az": "Rumıniya", "name:ay": "Rumanya", "name:ast": "Rumanía", "name:arz": "رومانيا", "name:arc": "ܪܘܡܢܝܐ", "name:ar": "رومانيا", "name:ang": "Rumǣnia", "name:an": "Rumanía", "name:am": "ሮማንያ", "name:als": "Rumänien", "name:af": "Roemenië", "name:ace": "Rumania", "name": "România", "int_name": "Romania", "flag": "https://upload.wikimedia.org/wikipedia/commons/7/73/Flag_of_Romania.svg", "default_language": "ro", "boundary": "administrative", "alt_name:eo": "Rumanujo", "ISO3166-1:numeric": "642", "ISO3166-1:alpha3": "ROU", "ISO3166-1:alpha2": "RO", "ISO3166-1": "RO" }, "geometry": { "type": "MultiPolygon", "coordinates": [ [ [ [ 21.9928866, 44.6327361 ], [ 21.6370869, 44.6597321 ], [ 21.5861348, 44.7593526 ], [ 21.3959781, 44.7796494 ], [ 21.3563017, 44.8271956 ], [ 21.3670599, 44.8644869 ], [ 21.5601308, 44.8890047 ], [ 21.5466854, 44.9305177 ], [ 21.4383817, 44.9605329 ], [ 21.3602313, 45.0204424 ], [ 21.4560509, 45.0404095 ], [ 21.4784582, 45.1212008 ], [ 21.5274094, 45.137875 ], [ 21.5148216, 45.1711547 ], [ 21.4034333, 45.2292706 ], [ 21.2189845, 45.2505828 ], [ 21.1759441, 45.3251585 ], [ 21.0965274, 45.2958979 ], [ 21.063374, 45.3319298 ], [ 21.0165684, 45.3246306 ], [ 20.9202588, 45.4172428 ], [ 20.8646189, 45.4318241 ], [ 20.8663857, 45.4651796 ], [ 20.7710472, 45.479921 ], [ 20.8325729, 45.5358913 ], [ 20.7657906, 45.6126216 ], [ 20.8049896, 45.6572258 ], [ 20.8230651, 45.7750927 ], [ 20.700651, 45.7505625 ], [ 20.5693028, 45.910146 ], [ 20.5158163, 45.892108 ], [ 20.4829321, 45.9534269 ], [ 20.3483767, 45.9995822 ], [ 20.3460678, 46.0473807 ], [ 20.2648334, 46.1084786 ], [ 20.2828875, 46.117612 ], [ 20.268859637600354, 46.126945458275486 ], [ 20.267824092540028, 46.126747499577917 ], [ 20.2968418, 46.1522369 ], [ 20.3556082, 46.1696739 ], [ 20.3684481, 46.152932 ], [ 20.45911, 46.1428791 ], [ 20.5015001, 46.1899329 ], [ 20.6392272, 46.1267305 ], [ 20.6537645, 46.1487742 ], [ 20.6870367, 46.1455707 ], [ 20.7149982, 46.1668539 ], [ 20.7340876, 46.1937985 ], [ 20.7273743, 46.2073774 ], [ 20.7618404, 46.2044731 ], [ 20.749047, 46.250849 ], [ 20.775654, 46.27596 ], [ 20.873271, 46.287756 ], [ 20.9221563, 46.2618353 ], [ 20.9250702, 46.2766191 ], [ 20.946585, 46.279303 ], [ 20.9608171, 46.262304 ], [ 21.0246723, 46.2665329 ], [ 21.036624, 46.248039 ], [ 21.0660828, 46.2429394 ], [ 21.103161, 46.262589 ], [ 21.1155011, 46.3016603 ], [ 21.1805936, 46.3041159 ], [ 21.1762269, 46.3357664 ], [ 21.1994707, 46.3479089 ], [ 21.2063155, 46.4032299 ], [ 21.2962805, 46.406696 ], [ 21.3177669, 46.4506918 ], [ 21.2604143, 46.5019609 ], [ 21.2742187, 46.5407104 ], [ 21.3207803, 46.5828136 ], [ 21.3011224, 46.5908157 ], [ 21.3140883, 46.6175941 ], [ 21.365614, 46.6378313 ], [ 21.4099891, 46.6218365 ], [ 21.4164199, 46.6425181 ], [ 21.4548856, 46.6611553 ], [ 21.430051, 46.6938662 ], [ 21.4922181, 46.6859799 ], [ 21.5293422, 46.7208103 ], [ 21.5266634, 46.7391945 ], [ 21.4832192, 46.7647151 ], [ 21.518681, 46.7998628 ], [ 21.519212, 46.8359137 ], [ 21.5968162, 46.8613169 ], [ 21.6142, 46.8865295 ], [ 21.5986842, 46.9274662 ], [ 21.6788273, 46.9604142 ], [ 21.6685235, 46.9728284 ], [ 21.6889507, 47.0018204 ], [ 21.6487388, 47.0404368 ], [ 21.6826156, 47.0457099 ], [ 21.7260956, 47.0985272 ], [ 21.7923037, 47.1063386 ], [ 21.8175189, 47.172799 ], [ 21.8580152, 47.1870085 ], [ 21.8518316, 47.2392442 ], [ 21.8878583, 47.2721232 ], [ 21.8787323, 47.287407 ], [ 21.9385227, 47.3729991 ], [ 22.0119295, 47.375748 ], [ 22.0353006, 47.4274076 ], [ 22.0071887, 47.48362 ], [ 22.0440531, 47.5386039 ], [ 22.0615323, 47.5290091 ], [ 22.0712176, 47.5380742 ], [ 22.055263, 47.5485389 ], [ 22.0937016, 47.5581442 ], [ 22.1281644, 47.598019 ], [ 22.1766395, 47.5943758 ], [ 22.2261934, 47.6879933 ], [ 22.2588867, 47.6980839 ], [ 22.2645396, 47.7311613 ], [ 22.3176236, 47.7433657 ], [ 22.3177715, 47.7660887 ], [ 22.4302174, 47.7409546 ], [ 22.4479445, 47.8031152 ], [ 22.4812121, 47.8108887 ], [ 22.5495259, 47.7726589 ], [ 22.6801939, 47.7877527 ], [ 22.7136345, 47.8360928 ], [ 22.77775, 47.8422508 ], [ 22.7580507, 47.89341 ], [ 22.8473299, 47.907758 ], [ 22.8864512, 47.9513882 ], [ 22.947637, 47.9672813 ], [ 22.9201004, 48.0069153 ], [ 22.9270464, 48.0191412 ], [ 23.0135472, 47.990551 ], [ 23.0903261, 48.0056941 ], [ 23.1091022, 48.0353401 ], [ 23.1054463, 48.0659863 ], [ 23.1233707, 48.0773735 ], [ 23.1138764, 48.0871407 ], [ 23.1666763, 48.1199734 ], [ 23.1895497, 48.0977003 ], [ 23.2676437, 48.1000756 ], [ 23.29102, 48.07188 ], [ 23.2765371, 48.059736 ], [ 23.2879691, 48.04679 ], [ 23.4936973, 47.9678959 ], [ 23.5297268, 48.0217884 ], [ 23.5669827, 48.0028614 ], [ 23.6389336, 48.0020865 ], [ 23.665664, 47.9835135 ], [ 23.7511867, 47.998354 ], [ 23.8191132, 47.9832191 ], [ 23.8647133, 47.9316846 ], [ 24.0078958, 47.9675026 ], [ 24.0978567, 47.9370423 ], [ 24.1126028, 47.9147512 ], [ 24.19533, 47.91687 ], [ 24.221271, 47.896894 ], [ 24.3249358, 47.9260139 ], [ 24.3491371, 47.9151885 ], [ 24.436135, 47.9703831 ], [ 24.507589, 47.951848 ], [ 24.577721, 47.967503 ], [ 24.5970154, 47.9461889 ], [ 24.628475, 47.9480106 ], [ 24.635075, 47.9245072 ], [ 24.6739196, 47.8963961 ], [ 24.6707318, 47.865451 ], [ 24.7060689, 47.8399448 ], [ 24.82773, 47.82074 ], [ 24.8362408, 47.7796892 ], [ 24.8783617, 47.7526555 ], [ 24.8831486, 47.7243679 ], [ 25.0398305, 47.7253775 ], [ 25.0538245, 47.7464077 ], [ 25.1155779, 47.7548305 ], [ 25.1346275, 47.7824481 ], [ 25.1655094, 47.7906802 ], [ 25.2369363, 47.8957287 ], [ 25.6255351, 47.9487906 ], [ 25.7749863, 47.9394492 ], [ 25.8503648, 47.9691455 ], [ 25.8920419, 47.9612138 ], [ 25.9149992, 47.9775177 ], [ 26.1709554, 47.9908385 ], [ 26.1990289, 48.0077205 ], [ 26.214072, 48.0525992 ], [ 26.2727453, 48.0821174 ], [ 26.2981526, 48.1337288 ], [ 26.3341734, 48.1594944 ], [ 26.3287936, 48.1805407 ], [ 26.349206, 48.191511 ], [ 26.4045598, 48.1894439 ], [ 26.4740038, 48.217764 ], [ 26.5720032, 48.2194056 ], [ 26.5736939, 48.2408447 ], [ 26.619861524904408, 48.250364413259248 ], [ 26.7004188, 48.2654738 ], [ 26.7211962, 48.2463512 ], [ 26.8084142, 48.2545869 ], [ 26.8317409, 48.2265453 ], [ 26.8517383, 48.2341735 ], [ 26.903351, 48.1807235 ], [ 26.9349106, 48.1643655 ], [ 26.9548401, 48.152084 ], [ 26.9593353, 48.1332423 ], [ 27.0399065, 48.1290105 ], [ 27.0253376, 48.0895317 ], [ 27.0839445, 48.034522 ], [ 27.1077647, 48.031302 ], [ 27.0892408, 48.0088635 ], [ 27.1262177, 48.0134505 ], [ 27.1233361, 47.9929632 ], [ 27.1632003, 47.9958446 ], [ 27.1435139, 47.9656726 ], [ 27.1771159, 47.9439213 ], [ 27.1426701, 47.9155138 ], [ 27.1996505, 47.9010117 ], [ 27.1949573, 47.8481562 ], [ 27.2466307, 47.8361654 ], [ 27.2417789, 47.8157255 ], [ 27.2315353, 47.7981536 ], [ 27.2662836, 47.7798101 ], [ 27.265742, 47.7594647 ], [ 27.2979677, 47.7508037 ], [ 27.2930512, 47.7233114 ], [ 27.264882, 47.7331082 ], [ 27.2509962, 47.7195968 ], [ 27.2823465, 47.7008775 ], [ 27.2960545, 47.6805795 ], [ 27.2948875, 47.6622787 ], [ 27.3315698, 47.6289443 ], [ 27.3777027, 47.5947397 ], [ 27.4278692, 47.5830097 ], [ 27.4185349, 47.5649922 ], [ 27.4565865, 47.5365373 ], [ 27.4677467, 47.5264177 ], [ 27.4543449, 47.507438 ], [ 27.474917, 47.4851887 ], [ 27.5067522, 47.4782225 ], [ 27.5163531, 47.4908044 ], [ 27.5382054, 47.4890226 ], [ 27.5718688, 47.4648145 ], [ 27.5525409, 47.4333359 ], [ 27.5845338, 47.4083184 ], [ 27.5689753, 47.373078 ], [ 27.5966917, 47.3724996 ], [ 27.6151254, 47.340925 ], [ 27.621991, 47.326008 ], [ 27.6792277, 47.3094745 ], [ 27.7050494, 47.3001278 ], [ 27.7322679, 47.2926583 ], [ 27.758601, 47.2579078 ], [ 27.7865174, 47.2178357 ], [ 27.7899049, 47.2078716 ], [ 27.8037654, 47.1883103 ], [ 27.81126, 47.1656525 ], [ 27.7842268, 47.1496911 ], [ 27.8425869, 47.1356355 ], [ 27.8496569, 47.1238189 ], [ 27.8748453, 47.1079062 ], [ 27.8975666, 47.0733843 ], [ 27.9407509, 47.0660808 ], [ 27.9602079, 47.0563554 ], [ 27.9446004, 47.0497658 ], [ 27.9951169, 47.0289697 ], [ 28.0485592, 47.0247348 ], [ 28.0538238, 47.0139651 ], [ 28.0320277, 47.0115115 ], [ 28.095868, 46.9789629 ], [ 28.0965204, 46.94107 ], [ 28.1125928, 46.9211711 ], [ 28.1139535, 46.8918724 ], [ 28.1188287, 46.8777298 ], [ 28.1273964, 46.8527204 ], [ 28.1075412, 46.8424757 ], [ 28.1143591, 46.8219849 ], [ 28.1765802, 46.7779301 ], [ 28.1854445, 46.7596073 ], [ 28.194354, 46.734724 ], [ 28.2090302, 46.7125553 ], [ 28.2362873, 46.6791901 ], [ 28.252558, 46.6123545 ], [ 28.2309097, 46.5849588 ], [ 28.2228646, 46.5798067 ], [ 28.2359018, 46.5516156 ], [ 28.2305224, 46.5290269 ], [ 28.2092938, 46.5056327 ], [ 28.2584309, 46.4621621 ], [ 28.257359, 46.4470449 ], [ 28.2585461, 46.4265449 ], [ 28.2388451, 46.4067513 ], [ 28.242906, 46.3945171 ], [ 28.2202422, 46.3811348 ], [ 28.2089103, 46.3593486 ], [ 28.1995992, 46.3438709 ], [ 28.2091536, 46.3205572 ], [ 28.2024294, 46.3103465 ], [ 28.1804119, 46.285286 ], [ 28.1692979, 46.2824723 ], [ 28.1524421, 46.2787271 ], [ 28.1409906, 46.2857098 ], [ 28.1262038, 46.262092 ], [ 28.1463976, 46.2514574 ], [ 28.1098546, 46.2427076 ], [ 28.1095786, 46.2045764 ], [ 28.1215268, 46.2120452 ], [ 28.1415358, 46.1920303 ], [ 28.1434676, 46.1769447 ], [ 28.1430832, 46.1643571 ], [ 28.1240791, 46.1507294 ], [ 28.1344485, 46.1304549 ], [ 28.123384169267968, 46.105815942582943 ], [ 28.1043146, 46.1168253 ], [ 28.0759258, 46.1175271 ], [ 28.0088958, 46.1049376 ], [ 28.0093338, 46.1153425 ], [ 27.9842567, 46.1104966 ], [ 27.9646144, 46.1414558 ], [ 27.9395628, 46.1351233 ], [ 27.9262166, 46.152477 ], [ 27.9107016, 46.1538365 ], [ 27.871894, 46.1455714 ], [ 27.8726464, 46.1580185 ], [ 27.8631153, 46.1629911 ], [ 27.846887, 46.1577681 ], [ 27.8453185, 46.1263498 ], [ 27.8301694, 46.1271779 ], [ 27.838684, 46.1156887 ], [ 27.8293261, 46.1113521 ], [ 27.8219619, 46.1202458 ], [ 27.8080543, 46.1116432 ], [ 27.8154651, 46.1048221 ], [ 27.7881329, 46.0949001 ], [ 27.786051, 46.1124509 ], [ 27.7636111, 46.1153442 ], [ 27.7624487, 46.1281319 ], [ 27.7110378, 46.1292049 ], [ 27.7101911, 46.1385886 ], [ 27.6932007, 46.1321683 ], [ 27.6759274, 46.141395 ], [ 27.6716229, 46.1328088 ], [ 27.6504793, 46.140355 ], [ 27.6472216, 46.1299007 ], [ 27.6338961, 46.1383813 ], [ 27.6074295, 46.1305359 ], [ 27.5978029, 46.1392576 ], [ 27.6035822, 46.1444826 ], [ 27.5824806, 46.147143 ], [ 27.5841445, 46.1355249 ], [ 27.6012642, 46.1230934 ], [ 27.5911134, 46.1239495 ], [ 27.5965498, 46.1129434 ], [ 27.5880794, 46.1114031 ], [ 27.6109587, 46.0767902 ], [ 27.5872213, 46.071809 ], [ 27.6144183, 46.0733564 ], [ 27.6277123, 46.0613948 ], [ 27.5998874, 46.0559275 ], [ 27.6048631, 46.0359425 ], [ 27.5959097, 46.0276993 ], [ 27.6044821, 46.0193763 ], [ 27.5625842, 46.0028884 ], [ 27.5159458, 46.0535615 ], [ 27.5319364, 46.067128 ], [ 27.5171919, 46.085361 ], [ 27.5352605, 46.0956354 ], [ 27.5024548, 46.1432594 ], [ 27.4846922, 46.1453379 ], [ 27.4929411, 46.1624668 ], [ 27.4788657, 46.1675962 ], [ 27.4591697, 46.1574323 ], [ 27.4480355, 46.1842143 ], [ 27.3938787, 46.1942659 ], [ 27.3789769, 46.1899113 ], [ 27.3809625, 46.165078 ], [ 27.3746311, 46.1574304 ], [ 27.3500329, 46.1527167 ], [ 27.3504019, 46.1688982 ], [ 27.3339022, 46.1684839 ], [ 27.3303669, 46.1794359 ], [ 27.3141896, 46.183795 ], [ 27.3179608, 46.2027678 ], [ 27.3066227, 46.2061765 ], [ 27.262731, 46.2004213 ], [ 27.2698861, 46.1832198 ], [ 27.245776, 46.1778824 ], [ 27.2355291, 46.1895961 ], [ 27.2216828, 46.1913644 ], [ 27.200685, 46.1792962 ], [ 27.190424, 46.186666 ], [ 27.185839, 46.1719244 ], [ 27.1732423, 46.1812796 ], [ 27.1646457, 46.1746736 ], [ 27.1701708, 46.1696053 ], [ 27.123624, 46.1474833 ], [ 27.1272488, 46.137812 ], [ 27.1401146, 46.1341952 ], [ 27.1361278, 46.1144815 ], [ 27.1229692, 46.1040922 ], [ 27.0861291, 46.1115058 ], [ 27.1051953, 46.1050218 ], [ 27.1056461, 46.0887017 ], [ 27.0845117, 46.0952877 ], [ 27.0731835, 46.0876787 ], [ 26.9835787, 46.1132638 ], [ 26.9456599, 46.0998188 ], [ 26.9527031, 46.0862117 ], [ 26.9326544, 46.0645639 ], [ 26.8701411, 46.0851411 ], [ 26.8449787, 46.0714173 ], [ 26.8071056, 46.0657855 ], [ 26.8011895, 46.0758081 ], [ 26.787987, 46.0786358 ], [ 26.7807715, 46.093904 ], [ 26.7621155, 46.0865556 ], [ 26.7402234, 46.0874122 ], [ 26.7336576, 46.0953987 ], [ 26.717757, 46.0890399 ], [ 26.7046134, 46.0938854 ], [ 26.6813913, 46.0793029 ], [ 26.6447019, 46.0751383 ], [ 26.6341048, 46.0575102 ], [ 26.5860832, 46.0404318 ], [ 26.5726031, 46.0168393 ], [ 26.5156523, 46.0269216 ], [ 26.491727, 46.0452216 ], [ 26.4603674, 46.0351422 ], [ 26.4400116, 46.0388885 ], [ 26.4460148, 46.0188869 ], [ 26.4337154, 46.0025537 ], [ 26.4375743, 45.9899438 ], [ 26.3907247, 45.9573051 ], [ 26.3940865, 45.9211893 ], [ 26.3760109, 45.9077156 ], [ 26.3871308, 45.8748395 ], [ 26.3710472, 45.8432632 ], [ 26.3749404, 45.8209102 ], [ 26.3921202, 45.802397 ], [ 26.3833344, 45.7826915 ], [ 26.3893863, 45.7667667 ], [ 26.3807411, 45.7497486 ], [ 26.3845357, 45.7362251 ], [ 26.3534096, 45.7225166 ], [ 26.3572264, 45.7120732 ], [ 26.3323329, 45.6855909 ], [ 26.3241969, 45.6491317 ], [ 26.3291567, 45.6318274 ], [ 26.3107378, 45.6030601 ], [ 26.3010226, 45.6053215 ], [ 26.2816797, 45.585785 ], [ 26.2530478, 45.6007326 ], [ 26.2553033, 45.6182123 ], [ 26.2461012, 45.6262355 ], [ 26.2103746, 45.6206832 ], [ 26.1854493, 45.6083077 ], [ 26.1722535, 45.5633372 ], [ 26.1551712, 45.5767654 ], [ 26.1555415, 45.5849529 ], [ 26.1477189, 45.5849252 ], [ 26.0959338, 45.5176148 ], [ 26.0664946, 45.5022988 ], [ 26.0655014, 45.485302 ], [ 26.0466777, 45.4784414 ], [ 26.01341, 45.4901733 ], [ 25.9952413, 45.5143966 ], [ 25.9674061, 45.5077708 ], [ 25.9210372, 45.5219638 ], [ 25.8909976, 45.4879068 ], [ 25.8973223, 45.4781629 ], [ 25.8874597, 45.4668084 ], [ 25.8898049, 45.4469899 ], [ 25.8691684, 45.4358724 ], [ 25.8653915, 45.4224571 ], [ 25.8224121, 45.4316347 ], [ 25.8284048, 45.438751 ], [ 25.8198598, 45.4556095 ], [ 25.7864721, 45.4818238 ], [ 25.7659406, 45.4655682 ], [ 25.7264699, 45.4653734 ], [ 25.6810187, 45.5006276 ], [ 25.6427665, 45.4921109 ], [ 25.6299803, 45.4960713 ], [ 25.5992902, 45.4624688 ], [ 25.5723537, 45.4676772 ], [ 25.5329235, 45.4589423 ], [ 25.5115686, 45.4703969 ], [ 25.4980894, 45.4674332 ], [ 25.4764396, 45.4529701 ], [ 25.4606909, 45.4535075 ], [ 25.4517192, 45.4409619 ], [ 25.4127001, 45.4295512 ], [ 25.403271, 45.3865761 ], [ 25.3627493, 45.3915759 ], [ 25.3216017, 45.3810938 ], [ 25.3080209, 45.3895179 ], [ 25.3122553, 45.3991792 ], [ 25.3010975, 45.4230458 ], [ 25.2725915, 45.4074089 ], [ 25.2553937, 45.4224964 ], [ 25.2619936, 45.4378446 ], [ 25.2758625, 45.4420604 ], [ 25.2383661, 45.4755221 ], [ 25.2368067, 45.517763 ], [ 25.211649, 45.5268738 ], [ 25.2034301, 45.5196941 ], [ 25.1889737, 45.5227788 ], [ 25.1032319, 45.5852057 ], [ 25.0805971, 45.5818133 ], [ 25.0361109, 45.5926519 ], [ 24.9832875, 45.5861907 ], [ 24.9581334, 45.5927204 ], [ 24.9414699, 45.5820995 ], [ 24.9173934, 45.5945955 ], [ 24.8363887, 45.5920324 ], [ 24.829816, 45.6065429 ], [ 24.8106424, 45.6107446 ], [ 24.7925464, 45.6023612 ], [ 24.7713119, 45.6112019 ], [ 24.7364244, 45.6031376 ], [ 24.7285954, 45.6083704 ], [ 24.6835862, 45.6043887 ], [ 24.6709602, 45.5945864 ], [ 24.6581588, 45.6030679 ], [ 24.626195, 45.6039234 ], [ 24.5659013, 45.5791495 ], [ 24.5536739, 45.5877481 ], [ 24.528634, 45.5808253 ], [ 24.5114825, 45.5868033 ], [ 24.4814451, 45.5725193 ], [ 24.4776636, 45.5816011 ], [ 24.4613623, 45.5809045 ], [ 24.4461143, 45.5908507 ], [ 24.4322629, 45.581172 ], [ 24.386669, 45.5839108 ], [ 24.3370462, 45.5724898 ], [ 24.334448, 45.5818669 ], [ 24.2660432, 45.5557537 ], [ 24.2572559, 45.5430863 ], [ 24.2267054, 45.5472448 ], [ 24.2050464, 45.5235772 ], [ 24.1188419, 45.5087619 ], [ 24.0113135, 45.5319413 ], [ 24.0009715, 45.5266399 ], [ 23.9222788, 45.5359821 ], [ 23.8735723, 45.5228183 ], [ 23.8578476, 45.5350254 ], [ 23.7948151, 45.5301639 ], [ 23.7711679, 45.5107026 ], [ 23.7036209, 45.496779 ], [ 23.6789139, 45.4648231 ], [ 23.6537087, 45.4573107 ], [ 23.6348744, 45.4566391 ], [ 23.6269036, 45.4709338 ], [ 23.6172269, 45.4658276 ], [ 23.5972778, 45.4734786 ], [ 23.5956976, 45.4527724 ], [ 23.5761392, 45.4278383 ], [ 23.5922932, 45.4210346 ], [ 23.5889373, 45.4099416 ], [ 23.6016421, 45.3826804 ], [ 23.5853488, 45.3697004 ], [ 23.5906473, 45.3530768 ], [ 23.5391506, 45.3401084 ], [ 23.5313115, 45.3289869 ], [ 23.4524709, 45.2984524 ], [ 23.4003618, 45.315912 ], [ 23.4033901, 45.3338943 ], [ 23.3800659, 45.3387472 ], [ 23.3749174, 45.3318455 ], [ 23.3393764, 45.3314369 ], [ 23.3268155, 45.3100053 ], [ 23.3099625, 45.2999248 ], [ 23.2888771, 45.3099132 ], [ 23.2344881, 45.3035134 ], [ 23.2072895, 45.2773193 ], [ 23.1848148, 45.285883 ], [ 23.1647088, 45.2793003 ], [ 23.1489222, 45.2869653 ], [ 23.1453258, 45.2791511 ], [ 23.0933192, 45.2912499 ], [ 23.0679029, 45.274759 ], [ 23.0663121, 45.2649405 ], [ 23.0076135, 45.2533972 ], [ 22.9961542, 45.2602459 ], [ 22.9750686, 45.2541294 ], [ 22.9637487, 45.2712987 ], [ 22.9560059, 45.2713937 ], [ 22.9426087, 45.2383541 ], [ 22.9222137, 45.2413497 ], [ 22.9423375, 45.2651626 ], [ 22.9562382, 45.2726308 ], [ 22.9333222, 45.2785603 ], [ 22.8643609, 45.2610682 ], [ 22.8578405, 45.2758405 ], [ 22.8238811, 45.2851548 ], [ 22.8144635, 45.2723911 ], [ 22.7848099, 45.2623927 ], [ 22.7742902, 45.2701174 ], [ 22.7440518, 45.264918 ], [ 22.7351927, 45.2534237 ], [ 22.6999148, 45.260179 ], [ 22.6923566, 45.2512799 ], [ 22.6864892, 45.258214 ], [ 22.6731508, 45.2403081 ], [ 22.6445968, 45.2337169 ], [ 22.6463572, 45.2202238 ], [ 22.6003829, 45.2052596 ], [ 22.5606272, 45.1621634 ], [ 22.5789172, 45.1379002 ], [ 22.6507628, 45.1277424 ], [ 22.6562184, 45.1050149 ], [ 22.586367, 45.0440722 ], [ 22.5708238, 45.0408569 ], [ 22.5366374, 45.0020427 ], [ 22.4921677, 44.9732825 ], [ 22.5117055, 44.9659201 ], [ 22.5164066, 44.9557251 ], [ 22.4866086, 44.949298 ], [ 22.4962096, 44.9288679 ], [ 22.4910359, 44.909325 ], [ 22.4821877, 44.9069152 ], [ 22.4865444, 44.8811653 ], [ 22.4763227, 44.8764931 ], [ 22.457814, 44.8510335 ], [ 22.4597673, 44.8432844 ], [ 22.444441, 44.8324037 ], [ 22.4464739, 44.8222617 ], [ 22.423728, 44.8005348 ], [ 22.4304464, 44.7811854 ], [ 22.4174338, 44.7706698 ], [ 22.4187041, 44.7562988 ], [ 22.4014487, 44.753341 ], [ 22.3916364, 44.7619299 ], [ 22.3681709, 44.7561854 ], [ 22.3581178, 44.7387177 ], [ 22.3416479, 44.7740667 ], [ 22.2680901, 44.7825371 ], [ 22.2435006, 44.8074853 ], [ 22.2068047, 44.817478 ], [ 22.2071552, 44.7993539 ], [ 22.1950622, 44.7792176 ], [ 22.2041639, 44.7614134 ], [ 22.1855466, 44.7412894 ], [ 22.1635392, 44.7434348 ], [ 22.1560664, 44.7365258 ], [ 22.1468975, 44.7007641 ], [ 22.1492027, 44.6824611 ], [ 22.1386769, 44.6599371 ], [ 22.177407, 44.6398868 ], [ 22.1762971, 44.6245016 ], [ 22.1568405, 44.5933141 ], [ 22.1475151, 44.5853106 ], [ 22.1330187, 44.6006158 ], [ 22.1177499, 44.5916845 ], [ 22.0922879, 44.619081 ], [ 22.0786344, 44.6218322 ], [ 22.062006, 44.6099576 ], [ 22.023478, 44.607753 ], [ 22.0161387, 44.5991717 ], [ 22.010959533923003, 44.595671120060835 ], [ 21.9928866, 44.6327361 ] ] ] ] } }
]
}
