{
"type": "FeatureCollection",
"name": "Свентокшиское",
"crs": { "type": "name", "properties": { "name": "urn:ogc:def:crs:OGC:1.3:CRS84" } },
"features": [
{ "type": "Feature", "properties": { "full_id": "r130914", "osm_id": "130914", "osm_type": "relation", "admin_level": "4", "emergency_telephone_code": null, "landuse": null, "contact:phone": null, "contact:fax": null, "addr:country": null, "mapillary": null, "layer": null, "opening_hours:signed": null, "wheelchair": null, "contact:website": null, "addr:city:simc": null, "source:addr": null, "parking": null, "amenity": null, "access": null, "addr:housename": null, "year_of_construction": null, "ref:nid": null, "image": null, "heritage:operator": null, "heritage": null, "emergency:phone": null, "contact:facebook": null, "building:usage:pl": null, "building:levels:underground": null, "religion": null, "denomination": null, "check_date:opening_hours": null, "blind:description:pl": null, "fax": null, "building:levels": null, "addr:street": null, "website:refugee:uk": null, "website:ua": null, "roof:shape": null, "roof:material": null, "roof:height": null, "roof:colour": null, "phone": null, "opening_hours": null, "office": null, "height": null, "government": null, "email": null, "building:colour": null, "building": null, "addr:postcode": null, "addr:place": null, "addr:housenumber": null, "addr:city": null, "name:fy": null, "name:zza": null, "name:io": null, "name:cy": null, "name:ce": null, "int_name": null, "name:lo": null, "name:ia": null, "website": null, "name:nap": null, "name:sco": null, "name:mt": null, "name:dsb": null, "alt_name:sk": null, "name:nah": null, "alt_name:es": null, "name:sr-Latn": null, "alt_name:it": null, "ref:nuts:1": null, "name:vls": null, "name:ky": null, "name:ba": null, "name:an": null, "name:yi": null, "name:tt": null, "name:la": null, "name:bar": null, "alt_name:pl": null, "name:udm": "Дун-чылкыт Кирос воеводство", "name:rue": "Святокрижске воеводство", "name:no": "Helligkorsvoivodskapet", "is_in:country_code": "PL", "is_in:country": "Poland", "wikipedia": "pl:Województwo świętokrzyskie", "wikidata": "Q54183", "type": "boundary", "teryt:terc": "26", "start_date": "1999-01-01", "source:population": "https://stat.gov.pl/download/gfx/portalinformacyjny/pl/defaultaktualnosci/5515/3/17/1/rocznik_demograficzny_2023_zakladki_pl.pdf", "short_name": "świętokrzyskie", "ref:nuts:2": "PL72", "ref:nuts": "PL72", "ref": "SK", "population:date": "2022-12-31", "population": "1178164", "name:zh-Hant": "聖十字省", "name:zh-Hans": "圣十字省", "name:zh": "圣十字省", "name:zea": null, "name:xmf": "სვიეტოკშიშ სავოევოდე", "name:war": null, "name:vec": "Voivodato de ła Santa croze", "name:ur": "شوئینتوشوسکیہ صوبہ", "name:uk": "Свентокшиське воєводство", "name:tr": "Kutsal Haç Voyvodalığı", "name:th": "จังหวัดชฟีแยนตือ-กชึช", "name:te": "స్వయిటోకోజిస్కీ వోయివోడెషిప్", "name:ta": "ஸ்விட்ஓக்கறயசகியே ஓய்வோடேஷிப்", "name:szl": "świyntokrziske wojewōdztwo", "name:sv": "Heligt Kors vojvodskap", "name:sr": "Војводство Светокришко", "name:sl": "Svetokriško vojvodstvo", "name:sk": "Svätokrížske vojvodstvo", "name:si": "ස්වයිටොක්ර්සයිකි ප්‍රාන්තය", "name:sh": "Svjetokžiško vojvodstvo", "name:scn": "Vuivudatu dâ Santacroce", "name:ru": "Свентокшиское воеводство", "name:ro": "Voievodatul Sfintei Cruci", "name:qu": "Santa Krus suyu", "name:pt": "Voivodia de Santa Cruz", "name:ps": "اشوی داشکسیه", "name:pnb": "صوبہ سویتو کاریزیسکی", "name:pl": "województwo świętokrzyskie", "name:pap": "Voivodat di Santo Krus", "name:os": "Свентокшийы воеводæйад", "name:oc": "Voivodat de Santa Crotz", "name:nn": "Święty Krzyż-voivodskapet", "name:nl": "Woiwodschap Swiety Krzyz", "name:nds": "Woiwodschop Heiligkreuz", "name:nb": "Helligkorsvoivodskapet", "name:myv": "Свентокшинэнь воеводства", "name:ms": "Wilayah Salib Suci", "name:mr": "श्वेंतोकशिस्का प्रांत", "name:mn": null, "name:mk": "Светокришко Војводство", "name:mi": null, "name:mdf": null, "name:lv": "Sventokšiskas vojevodiste", "name:lt": "Švento Kryžiaus vaivadija", "name:lmo": null, "name:li": null, "name:lb": null, "name:ko": "시비엥토크시스키에주", "name:kn": "ಶ್ವೇಟೋಕ್ರೋಜ್ಕಿ ವಾಯಿವೊಡೆಶಿಪ್", "name:ka": "სვიეტოკშის სავოევოდო", "name:jv": "Provinsi Salib Suci", "name:ja": "シフィェンティクシシュ県", "name:it": "voivodato della Santacroce", "name:is": "Heilagskross", "name:id": "Provinsi Święty Krzyż", "name:hy": null, "name:hu": "Szentkereszt vajdaság", "name:hsb": "Swjatokřižske wojewódstwo", "name:hr": "Svetokriško vojvodstvo", "name:hi": "स्वेतोक्रझिस्की वोइवोडीशिप", "name:he": "שוויינטוקז'יסקיה", "name:gv": "Queiggey Święty Krzyż", "name:gu": "સ્વેતોક્ર્ઝીસ્કી", "name:gl": null, "name:frr": "Haligkrüs Prowins", "name:fr": "Sainte-Croix", "name:fi": "Świętokrzyskin voivodikunta", "name:fa": "استان اشوی‌داشکسیه", "name:eu": "Gurutze Santuko voivoderria", "name:et": "Święty Krzyżi vojevoodkond", "name:es": "Voivodato de Santa Cruz", "name:eo": "Sanktakruca Provinco", "name:en": "Holy Cross Voivodeship", "name:el": "Βοεβοδάτο Τιμίου Σταυρού", "name:de": "Woiwodschaft Heiligkreuz", "name:da": "Voivodskabet Helligkors", "name:csb": "Swiãtokrzësczé wòjewództwò", "name:cs": "Svatokřížské vojvodství", "name:crh": "Sventokşıske voyevodalığı", "name:ca": "Voivodat de Santa Creu", "name:bs": "Svetokriško vojvodstvo", "name:bn": "সুইটোকিজিস্কি ভয়ভোডেশিপ", "name:bg": "Швентокшиско войводство", "name:be-tarask": "Сьвентакшыскае ваяводзтва", "name:be": "Свентакшыскае ваяводства", "name:azb": "اشوی‌داشکسیه اوستانی", "name:az": "Svetokrişko voyevodluğu", "name:ast": "Voivodato de Santa Cruz", "name:ar": "محافظة شفينتوكشيسكي", "name:ang": null, "name:af": null, "name": "województwo świętokrzyskie", "long_name:fr": "Voïvodie de Sainte-Croix", "loc_name": null, "license_plate_code": "T", "boundary": "administrative", "alt_name:en": "Świętokrzyskie Province", "ISO3166-2": "PL-26" }, "geometry": { "type": "MultiPolygon", "coordinates": [ [ [ [ 20.429389404427209, 51.340043400956674 ], [ 20.4309683, 51.3393644 ], [ 20.508495, 51.3301466 ], [ 20.5173562, 51.3166018 ], [ 20.5132639, 51.3081065 ], [ 20.4926279, 51.3072829 ], [ 20.4945167, 51.2986173 ], [ 20.5109009, 51.2941482 ], [ 20.5015635, 51.2869325 ], [ 20.5331506, 51.2768656 ], [ 20.5369098, 51.2700987 ], [ 20.5249024, 51.2606699 ], [ 20.5392939, 51.254798 ], [ 20.5332589, 51.2476723 ], [ 20.5436863, 51.2311562 ], [ 20.5659391, 51.2314674 ], [ 20.579009, 51.2447639 ], [ 20.6068495, 51.2468225 ], [ 20.6330358, 51.2234432 ], [ 20.6907877, 51.205445 ], [ 20.7026332, 51.184957 ], [ 20.6850182, 51.1735367 ], [ 20.6852759, 51.1512829 ], [ 20.6974062, 51.1489688 ], [ 20.718407, 51.1727158 ], [ 20.7712204, 51.1569813 ], [ 20.7661024, 51.1498872 ], [ 20.8130229, 51.1458351 ], [ 20.8217476, 51.1577898 ], [ 20.8091501, 51.1612009 ], [ 20.8215997, 51.1784478 ], [ 20.853655, 51.1729186 ], [ 20.8797809, 51.1544239 ], [ 20.9207195, 51.1953375 ], [ 21.0008276, 51.1595664 ], [ 20.9931671, 51.1520174 ], [ 20.9985364, 51.1444915 ], [ 21.024284, 51.1504007 ], [ 21.0228783, 51.1585753 ], [ 21.0566547, 51.1571261 ], [ 21.0733416, 51.1853914 ], [ 21.0700028, 51.2114642 ], [ 21.1106167, 51.2007342 ], [ 21.107901, 51.1932816 ], [ 21.1199574, 51.1887018 ], [ 21.0913054, 51.1551468 ], [ 21.1282166, 51.1408827 ], [ 21.1396057, 51.1256803 ], [ 21.1641359, 51.128526 ], [ 21.1539693, 51.1254783 ], [ 21.1602474, 51.1022275 ], [ 21.1508633, 51.0995269 ], [ 21.152795, 51.0803402 ], [ 21.3555388, 51.0852597 ], [ 21.3536045, 51.0671082 ], [ 21.3831049, 51.0582812 ], [ 21.3817617, 51.0406254 ], [ 21.4313798, 51.029499 ], [ 21.4635909, 51.013137 ], [ 21.4961174, 51.0215866 ], [ 21.4859168, 51.0238528 ], [ 21.5049377, 51.0317367 ], [ 21.48609, 51.0356675 ], [ 21.4898937, 51.0396561 ], [ 21.5169433, 51.0364659 ], [ 21.4996235, 51.0450576 ], [ 21.5122311, 51.0594883 ], [ 21.532818, 51.0623358 ], [ 21.5447707, 51.0471676 ], [ 21.5780446, 51.0600912 ], [ 21.5901358, 51.0577575 ], [ 21.6144141, 51.0653407 ], [ 21.6191083, 51.0597168 ], [ 21.6303334, 51.0634176 ], [ 21.612037, 51.0760848 ], [ 21.6402907, 51.07626 ], [ 21.6495948, 51.0694506 ], [ 21.6762455, 51.0780158 ], [ 21.7052636, 51.0426804 ], [ 21.7789809, 51.042017 ], [ 21.7724007, 51.048814 ], [ 21.7894687, 51.0595179 ], [ 21.7818056, 51.0608156 ], [ 21.7850678, 51.0689223 ], [ 21.8029992, 51.0720797 ], [ 21.826376, 51.0470327 ], [ 21.8026514, 51.0252706 ], [ 21.8207416, 51.0046168 ], [ 21.8128795, 50.9345382 ], [ 21.847423, 50.8616876 ], [ 21.8430002, 50.839335 ], [ 21.8692634, 50.8156013 ], [ 21.8604529, 50.784627 ], [ 21.8402188, 50.7589963 ], [ 21.8423606, 50.7351377 ], [ 21.8208931, 50.6915937 ], [ 21.7862794, 50.6800484 ], [ 21.7938202, 50.6756895 ], [ 21.7788428, 50.6588199 ], [ 21.7801173, 50.6450651 ], [ 21.7501893, 50.6552488 ], [ 21.7333821, 50.6415935 ], [ 21.7225873, 50.6453572 ], [ 21.710468, 50.6297739 ], [ 21.669452, 50.6050455 ], [ 21.6565086, 50.5718123 ], [ 21.6040201, 50.5212364 ], [ 21.5559122, 50.5206801 ], [ 21.4471552, 50.4917827 ], [ 21.4423927, 50.4850539 ], [ 21.4514609, 50.4639235 ], [ 21.4435135, 50.4564195 ], [ 21.4013044, 50.4392287 ], [ 21.3620375, 50.4395789 ], [ 21.2810517, 50.4083819 ], [ 21.2797164, 50.392555 ], [ 21.2572152, 50.3911455 ], [ 21.2513286, 50.3789091 ], [ 21.229995, 50.3735308 ], [ 21.2195493, 50.3573258 ], [ 21.1901236, 50.3520878 ], [ 21.1806873, 50.3307803 ], [ 21.1667125, 50.3330555 ], [ 21.1540401, 50.3513865 ], [ 21.132043, 50.3542857 ], [ 21.1130018, 50.3384482 ], [ 21.0830597, 50.3363623 ], [ 21.0617261, 50.3170359 ], [ 20.9551955, 50.3160401 ], [ 20.9311445, 50.2981055 ], [ 20.895269, 50.306632 ], [ 20.8795391, 50.2956328 ], [ 20.8530099, 50.2951735 ], [ 20.8481638, 50.2788449 ], [ 20.8358386, 50.2733157 ], [ 20.8093783, 50.288257 ], [ 20.7899384, 50.2895836 ], [ 20.7695181, 50.2691885 ], [ 20.7290454, 50.251473 ], [ 20.730027, 50.231315 ], [ 20.707917, 50.2268461 ], [ 20.7016711, 50.2170396 ], [ 20.6819219, 50.2165358 ], [ 20.6752641, 50.2014054 ], [ 20.6337829, 50.2116576 ], [ 20.6242556, 50.2019055 ], [ 20.6308128, 50.2025959 ], [ 20.630903, 50.2019612 ], [ 20.5934727, 50.201554 ], [ 20.5717582, 50.1862808 ], [ 20.5572179, 50.2016385 ], [ 20.5129191, 50.1854539 ], [ 20.4692832, 50.2007908 ], [ 20.4734593, 50.1907948 ], [ 20.4550167, 50.199211 ], [ 20.4515237, 50.1927194 ], [ 20.4307833, 50.197291 ], [ 20.4155177, 50.1912371 ], [ 20.4102497, 50.2117933 ], [ 20.3847088, 50.2075929 ], [ 20.3745653, 50.2160275 ], [ 20.3742866, 50.2272082 ], [ 20.3975454, 50.2414789 ], [ 20.376209, 50.2431507 ], [ 20.3529782, 50.2635756 ], [ 20.3307835, 50.2675272 ], [ 20.3622126, 50.2822783 ], [ 20.3564813, 50.2889573 ], [ 20.3409341, 50.2871242 ], [ 20.3402954, 50.2986935 ], [ 20.3490976, 50.2989106 ], [ 20.3444098, 50.3049588 ], [ 20.3327085, 50.3045336 ], [ 20.3284408, 50.3187384 ], [ 20.2926232, 50.3221986 ], [ 20.3053277, 50.3358855 ], [ 20.2924297, 50.3458014 ], [ 20.2954919, 50.3506165 ], [ 20.3131055, 50.3486345 ], [ 20.3390725, 50.3596285 ], [ 20.3175219, 50.3706781 ], [ 20.3209018, 50.3844581 ], [ 20.3058305, 50.3889627 ], [ 20.2898863, 50.4191425 ], [ 20.2638006, 50.4300274 ], [ 20.2606084, 50.4414307 ], [ 20.2728693, 50.4699458 ], [ 20.2619033, 50.4675291 ], [ 20.2477808, 50.479543 ], [ 20.2258306, 50.4779061 ], [ 20.220305, 50.4908486 ], [ 20.2053014, 50.4957105 ], [ 20.1665313, 50.4844423 ], [ 20.1305218, 50.489863 ], [ 20.1138076, 50.4847762 ], [ 20.0869076, 50.4895647 ], [ 20.0969947, 50.4960712 ], [ 20.0756511, 50.509804 ], [ 20.0543873, 50.511588 ], [ 20.0295573, 50.5007234 ], [ 20.0270895, 50.5085582 ], [ 19.9875145, 50.5197706 ], [ 19.9708712, 50.5204879 ], [ 19.9536544, 50.5057929 ], [ 19.9350919, 50.5022983 ], [ 19.911281, 50.5122498 ], [ 19.901231, 50.53973 ], [ 19.8548619, 50.5434248 ], [ 19.8442301, 50.5559882 ], [ 19.7886432, 50.5544802 ], [ 19.7897661, 50.5684732 ], [ 19.8041548, 50.5657047 ], [ 19.8426746, 50.5917684 ], [ 19.8571108, 50.6188662 ], [ 19.8984057, 50.6158635 ], [ 19.9221834, 50.6394197 ], [ 19.8888983, 50.6364905 ], [ 19.8787755, 50.6463691 ], [ 19.8310998, 50.6514329 ], [ 19.8417379, 50.6582952 ], [ 19.8369807, 50.6703945 ], [ 19.8532922, 50.6645631 ], [ 19.8658195, 50.6648355 ], [ 19.8586344, 50.6739342 ], [ 19.8730272, 50.6829606 ], [ 19.8716583, 50.6930447 ], [ 19.8504643, 50.6906067 ], [ 19.8433367, 50.7057324 ], [ 19.808266, 50.7059143 ], [ 19.8107676, 50.7254125 ], [ 19.8017186, 50.7170756 ], [ 19.7792473, 50.7217685 ], [ 19.7589927, 50.715701 ], [ 19.7129538, 50.7291559 ], [ 19.7194681, 50.7330489 ], [ 19.7043035, 50.7523931 ], [ 19.7112418, 50.7543132 ], [ 19.7057957, 50.7618188 ], [ 19.722452, 50.7594836 ], [ 19.7265748, 50.7710285 ], [ 19.7417226, 50.7546818 ], [ 19.7702799, 50.7709379 ], [ 19.7646898, 50.7777214 ], [ 19.7937336, 50.7822246 ], [ 19.7753634, 50.7983653 ], [ 19.7907105, 50.8055081 ], [ 19.7909544, 50.8107369 ], [ 19.7786613, 50.8091619 ], [ 19.7841678, 50.8178164 ], [ 19.8148158, 50.8023021 ], [ 19.8233724, 50.8056131 ], [ 19.8186111, 50.8207417 ], [ 19.8321599, 50.8197014 ], [ 19.8052461, 50.8470715 ], [ 19.747168391460512, 50.865934795096827 ], [ 19.747165, 50.8664735 ], [ 19.7868856, 50.887249 ], [ 19.7935707, 50.9071822 ], [ 19.8376978, 50.9174265 ], [ 19.8487692, 50.9356937 ], [ 19.8461719, 50.9451664 ], [ 19.8330679, 50.9499581 ], [ 19.8279366, 50.9667532 ], [ 19.8634984, 51.004762 ], [ 19.8606728, 51.0183026 ], [ 19.876323, 51.0483109 ], [ 19.8861698, 51.0475933 ], [ 19.8976608, 51.028278 ], [ 19.9369357, 51.0246237 ], [ 19.9357623, 51.0110658 ], [ 19.9497785, 51.0118432 ], [ 19.9578875, 50.9903717 ], [ 20.017655, 50.9622803 ], [ 20.0360641, 50.9725285 ], [ 20.0394483, 50.9902748 ], [ 20.0327516, 50.9957185 ], [ 20.0487903, 51.0115896 ], [ 20.048347, 51.0544425 ], [ 20.0562384, 51.0577507 ], [ 20.0446182, 51.0599811 ], [ 20.0454705, 51.0685674 ], [ 19.9817257, 51.0731363 ], [ 19.9929118, 51.0995841 ], [ 19.9854871, 51.1346443 ], [ 20.0016315, 51.1331165 ], [ 19.9883264, 51.139469 ], [ 20.022009, 51.1553947 ], [ 20.0257556, 51.1645428 ], [ 19.9940673, 51.1840614 ], [ 20.0258175, 51.200421 ], [ 20.0534966, 51.2027212 ], [ 20.0604526, 51.1989918 ], [ 20.0557293, 51.190724 ], [ 20.0646179, 51.1970299 ], [ 20.121241, 51.1906579 ], [ 20.1794995, 51.1954832 ], [ 20.1788477, 51.2070953 ], [ 20.2011469, 51.2041636 ], [ 20.1958627, 51.1967662 ], [ 20.2077747, 51.1998406 ], [ 20.2145251, 51.2096171 ], [ 20.2171835, 51.1990473 ], [ 20.2320041, 51.2010461 ], [ 20.2352516, 51.2089148 ], [ 20.2516518, 51.2067425 ], [ 20.2645566, 51.2196742 ], [ 20.251295, 51.2215815 ], [ 20.2560674, 51.2366268 ], [ 20.2417664, 51.2438591 ], [ 20.2425873, 51.2572966 ], [ 20.2606288, 51.2587837 ], [ 20.2601429, 51.2508977 ], [ 20.2779296, 51.2442741 ], [ 20.3101129, 51.2431053 ], [ 20.3308173, 51.2577454 ], [ 20.3712094, 51.2366331 ], [ 20.3797423, 51.245929 ], [ 20.3752588, 51.2618155 ], [ 20.3904219, 51.2722042 ], [ 20.3639276, 51.3112884 ], [ 20.4103519, 51.3185624 ], [ 20.4096225, 51.3260648 ], [ 20.4326942, 51.3343173 ], [ 20.4166537, 51.3621101 ], [ 20.429389404427209, 51.340043400956674 ] ] ] ] } }
]
}
